NORAD_CAT_ID,OBJECT_NAME,OBJECT_TYPE,EPOCH,MEAN_MOTION,ECCENTRICITY,INCLINATION,RA_OF_ASC_NODE,ARG_OF_PERICENTER,MEAN_ANOMALY,BSTAR,MEAN_MOTION_DOT,MEAN_MOTION_DDOT,TLE_LINE0,TLE_LINE1,TLE_LINE2,SEMIMAJOR_AXIS,PERIOD,APOGEE,PERIGEE,DECAYED
51964.0,STARLINK-3690,PAYLOAD,2022-08-29 08:00:01,15.08796026,0.0001865,53.2179,52.7681,53.7606,256.4974,0.0025469,0.0004043,0.0,0 STARLINK-3690,1 51964U 22025J   22241.33334491  .00040430  00000-0  25469-2 0  9996,2 51964  53.2179  52.7681 0001865  53.7606 256.4974 15.08796026 27796,6918.015,95.44,541.17,538.59,0.0
51964.0,STARLINK-3690,PAYLOAD,2022-08-29 14:00:01,15.08832872,0.000195,53.2183,51.6465,54.7865,174.1331,-0.0010081,-0.00016293,0.0,0 STARLINK-3690,1 51964U 22025J   22241.58334491 -.00016293  00000-0 -10081-2 0  9999,2 51964  53.2183  51.6465 0001950  54.7865 174.1331 15.08832872  1304,6917.901999999999,95.438,541.116,538.418,0.0
51964.0,STARLINK-3690,PAYLOAD,2022-08-29 22:00:00,15.08800406,0.0002094,53.2184,50.1515,48.8485,191.6545,0.0032339,0.000515,0.0,0 STARLINK-3690,1 51964U 22025J   22241.91667824  .00051500  00000-0  32339-2 0  9993,2 51964  53.2184  50.1515 0002094  48.8485 191.6545 15.08800406 27887,6918.001,95.44,541.315,538.418,0.0
51964.0,STARLINK-3690,PAYLOAD,2022-08-30 14:00:01,15.08849382,0.0002013,53.219,47.1576,54.7076,208.9442,-0.001248,-0.00020101,0.0,0 STARLINK-3690,1 51964U 22025J   22242.58334491 -.00020101  00000-0 -12480-2 0  9998,2 51964  53.2190  47.1576 0002013  54.7076 208.9442 15.08849382  1303,6917.852,95.437,541.109,538.3240000000002,0.0
51964.0,STARLINK-3690,PAYLOAD,2022-08-30 16:00:00,15.08850425,0.0002065999999999,53.219,46.784,52.7488,303.8047,-0.0013282,-0.00021371,0.0,0 STARLINK-3690,1 51964U 22025J   22242.66667824 -.00021371  00000-0 -13282-2 0  9997,2 51964  53.2190  46.7840 0002066  52.7488 303.8047 15.08850425 27994,6917.849,95.437,541.143,538.284,0.0
51964.0,STARLINK-3690,PAYLOAD,2022-08-30 22:00:00,15.08821363,0.0002130999999999,53.2191,45.6626,49.2362,226.0215,0.0031294,0.00049844,0.0,0 STARLINK-3690,1 51964U 22025J   22242.91667824  .00049844  00000-0  31294-2 0  9991,2 51964  53.2191  45.6626 0002131  49.2362 226.0215 15.08821363  1309,6917.937,95.439,541.2769999999998,538.328,0.0
51964.0,STARLINK-3690,PAYLOAD,2022-08-31 14:00:01,15.08843387,0.0001943,53.2197,42.6688,52.8168,245.6372,-0.0012661,-0.00020384,0.0,0 STARLINK-3690,1 51964U 22025J   22243.58334491 -.00020384  00000-0 -12661-2 0  9993,2 51964  53.2197  42.6688 0001943  52.8168 245.6372 15.08843387  1305,6917.87,95.437,541.0790000000002,538.391,0.0
51964.0,STARLINK-3690,PAYLOAD,2022-08-31 22:00:00,15.08815669,0.0002054,53.2195,41.1737,47.6961,262.3502,0.0026506,0.00042121,0.0,0 STARLINK-3690,1 51964U 22025J   22243.91667824  .00042121  00000-0  26506-2 0  9993,2 51964  53.2195  41.1737 0002054  47.6961 262.3502 15.08815669  1302,6917.955,95.439,541.241,538.399,0.0
51964.0,STARLINK-3690,PAYLOAD,2022-09-01 14:00:01,15.0886198,0.0001938,53.22,38.1802,53.2334,280.052,-0.0014435,-0.00023202,0.0,0 STARLINK-3690,1 51964U 22025J   22244.58335648 -.00023202  00000-0 -14435-2 0  9992,2 51964  53.2200  38.1802 0001938  53.2334 280.0520 15.08861980 28285,6917.813,95.436,541.019,538.3380000000002,0.0
51964.0,STARLINK-3690,PAYLOAD,2022-09-01 22:00:00,15.08842761,0.0001998,53.2196,36.6849,47.8207,297.0138,0.0015040999999999,0.00023733,0.0,0 STARLINK-3690,1 51964U 22025J   22244.91667824  .00023733  00000-0  15041-2 0  9994,2 51964  53.2196  36.6849 0001998  47.8207 297.0138 15.08842761  1300,6917.871999999999,95.437,541.119,538.355,0.0
51964.0,STARLINK-3690,PAYLOAD,2022-09-02 14:00:01,15.08851154,0.0001827,53.2199,33.6918,51.7413,316.2914,-0.0016574,-0.00026577,0.0,0 STARLINK-3690,1 51964U 22025J   22245.58334491 -.00026577  00000-0 -16574-2 0  9992,2 51964  53.2199  33.6918 0001827  51.7413 316.2914 15.08851154  1303,6917.846,95.437,540.975,538.447,0.0
51964.0,STARLINK-3690,PAYLOAD,2022-09-02 16:00:00,15.08842959,0.0001889999999999,53.2197,33.3182,50.4312,50.5018,-0.0011874,-0.00019138,0.0,0 STARLINK-3690,1 51964U 22025J   22245.66667824 -.00019138  00000-0 -11874-2 0  9993,2 51964  53.2197  33.3182 0001890  50.4312  50.5018 15.08842959 28456,6917.871,95.437,541.044,538.429,0.0
51964.0,STARLINK-3690,PAYLOAD,2022-09-02 22:00:01,15.08828514,0.0001908,53.2193,32.1962,47.0148,332.6753,0.0016120999999999,0.00025454,0.0,0 STARLINK-3690,1 51964U 22025J   22245.91668981  .00025454  00000-0  16121-2 0  9992,2 51964  53.2193  32.1962 0001908  47.0148 332.6753 15.08828514  1300,6917.915,95.438,541.1,538.461,0.0
51964.0,STARLINK-3690,PAYLOAD,2022-09-03 08:00:01,15.08830977,0.0001737,53.2193,30.3241,55.2604,68.8683,0.002644,0.00042032,0.0,0 STARLINK-3690,1 51964U 22025J   22246.33334491  .00042032  00000-0  26440-2 0  9991,2 51964  53.2193  30.3241 0001737  55.2604  68.8683 15.08830977 28550,6917.908,95.438,540.975,538.571,0.0
51964.0,STARLINK-3690,PAYLOAD,2022-09-03 14:00:01,15.08872894,0.0001817,53.2194,29.2033,51.7742,351.0497,-0.0024576,-0.00039224,0.0,0 STARLINK-3690,1 51964U 22025J   22246.58334491 -.00039224  00000-0 -24576-2 0  9997,2 51964  53.2194  29.2033 0001817  51.7742 351.0497 15.08872894  1308,6917.78,95.435,540.9019999999998,538.388,0.0
51964.0,STARLINK-3690,PAYLOAD,2022-09-03 22:00:00,15.08844861,0.0001846,53.2189,27.7075,45.5448,8.904,7.528399999999999e-05,9.1e-06,0.0,0 STARLINK-3690,1 51964U 22025J   22246.91667824  .00000910  00000-0  75284-4 0  9995,2 51964  53.2189  27.7075 0001846  45.5448   8.9040 15.08844861 28637,6917.866,95.437,541.008,538.453,0.0
51964.0,STARLINK-3690,PAYLOAD,2022-09-04 14:00:01,15.08868421,0.000175,53.2188,24.7144,48.5608,29.1593,-0.0037494,-0.00059514,0.0,0 STARLINK-3690,1 51964U 22025J   22247.58335648 -.00059514  00000-0 -37494-2 0  9990,2 51964  53.2188  24.7144 0001750  48.5608  29.1593 15.08868421  1306,6917.794,95.436,540.869,538.448,0.0
51964.0,STARLINK-3690,PAYLOAD,2022-09-04 20:00:01,15.08835206,0.0001841,53.2188,23.5928,43.6264,312.7518,0.0010502,0.00016463,0.0,0 STARLINK-3690,1 51964U 22025J   22247.83334491  .00016463  00000-0  10502-2 0  9998,2 51964  53.2188  23.5928 0001841  43.6264 312.7518 15.08835206  1301,6917.895,95.438,541.034,538.486,0.0
51964.0,STARLINK-3690,PAYLOAD,2022-09-05 06:00:00,15.08812459,0.0001705,53.2187,21.7203,50.9249,49.9567,0.0036564999999999,0.00058343,0.0,0 STARLINK-3690,1 51964U 22025J   22248.25001157  .00058343  00000-0  36565-2 0  9995,2 51964  53.2187  21.7203 0001705  50.9249  49.9567 15.08812459 28845,6917.965,95.439,541.009,538.65,0.0
51964.0,STARLINK-3690,PAYLOAD,2022-09-05 14:00:01,15.08874411,0.0001831,53.2187,20.2253,47.2899,65.1752,-0.0038106,-0.00060483,0.0,0 STARLINK-3690,1 51964U 22025J   22248.58334491 -.00060483  00000-0 -38106-2 0  9994,2 51964  53.2187  20.2253 0001831  47.2899  65.1752 15.08874411  1308,6917.775,95.435,540.9069999999998,538.374,0.0
51964.0,STARLINK-3690,PAYLOAD,2022-09-05 22:00:00,15.08842205,0.000183,53.2187,18.7291,40.1311,83.9437,-0.003527,-0.00055988,0.0,0 STARLINK-3690,1 51964U 22025J   22248.91667824 -.00055988  00000-0 -35270-2 0  9993,2 51964  53.2187  18.7291 0001830  40.1311  83.9437 15.08842205  1306,6917.874,95.437,541.005,538.4730000000002,0.0
51964.0,STARLINK-3690,PAYLOAD,2022-09-06 12:00:00,15.08807862,0.0001786,53.2192,16.1099,46.4565,7.8377,-0.0011107,-0.00017906,0.0,0 STARLINK-3690,1 51964U 22025J   22249.50001157 -.00017906  00000-0 -11107-2 0  9991,2 51964  53.2192  16.1099 0001786  46.4565   7.8377 15.08807862 29027,6917.979,95.44,541.0790000000002,538.6080000000002,0.0
51964.0,STARLINK-3690,PAYLOAD,2022-09-06 14:00:01,15.08802376,0.0001849,53.2191,15.7363,44.6736,102.5098,-0.00067086,-0.00010938,0.0,0 STARLINK-3690,1 51964U 22025J   22249.58334491 -.00010938  00000-0 -67086-3 0  9995,2 51964  53.2191  15.7363 0001849  44.6736 102.5098 15.08802376  1304,6917.995,95.44,541.14,538.581,0.0
51964.0,STARLINK-3690,PAYLOAD,2022-09-06 22:00:00,15.08811349,0.0001909,53.2192,14.2401,41.4635,117.2627,0.00047087,7.208e-05,0.0,0 STARLINK-3690,1 51964U 22025J   22249.91667824  .00007208  00000-0  47087-3 0  9994,2 51964  53.2192  14.2401 0001909  41.4635 117.2627 15.08811349  1303,6917.968000000003,95.439,541.154,538.512,0.0
51964.0,STARLINK-3690,PAYLOAD,2022-09-07 06:00:00,15.08798714,0.0001738,53.2196,12.7422,46.9963,123.2978,0.0030869,0.00049127,0.0,0 STARLINK-3690,1 51964U 22025J   22250.25001157  .00049127  00000-0  30869-2 0  9999,2 51964  53.2196  12.7422 0001738  46.9963 123.2978 15.08798714 29145,6918.007,95.44,541.0740000000002,538.669,0.0
51964.0,STARLINK-3690,PAYLOAD,2022-09-07 14:00:01,15.08834592,0.0001921,53.2198,11.2475,44.0587,137.8029,-0.00045742,-7.56e-05,0.0,0 STARLINK-3690,1 51964U 22025J   22250.58334491 -.00007560  00000-0 -45742-3 0  9999,2 51964  53.2198  11.2475 0001921  44.0587 137.8029 15.08834592  1305,6917.897,95.438,541.091,538.433,0.0
51964.0,STARLINK-3690,PAYLOAD,2022-09-07 22:00:00,15.08850526,0.0001952,53.2198,9.7511,41.8849,151.5598,-0.00016874,-2.974e-05,0.0,0 STARLINK-3690,1 51964U 22025J   22250.91667824 -.00002974  00000-0 -16874-3 0  9993,2 51964  53.2198   9.7511 0001952  41.8849 151.5598 15.08850526  1307,6917.848000000001,95.437,541.064,538.363,0.0
51964.0,STARLINK-3690,PAYLOAD,2022-09-08 14:00:01,15.08848011,0.0001896,53.2203,6.7586,41.6127,175.0617,-0.0012138,-0.00019558,0.0,0 STARLINK-3690,1 51964U 22025J   22251.58334491 -.00019558  00000-0 -12138-2 0  9992,2 51964  53.2203   6.7586 0001896  41.6127 175.0617 15.08848011  1306,6917.856,95.437,541.033,538.409,0.0
51964.0,STARLINK-3690,PAYLOAD,2022-09-08 22:00:00,15.0887324,0.0001911999999999,53.2202,5.2621,40.2807,187.993,-0.0034446999999999,-0.00054745,0.0,0 STARLINK-3690,1 51964U 22025J   22251.91667824 -.00054745  00000-0 -34447-2 0  9992,2 51964  53.2202   5.2621 0001912  40.2807 187.9930 15.08873240  1300,6917.779,95.435,540.966,538.321,0.0
